[{"OBJECT_NAME":"STARLINK-33535","OBJECT_ID":"2025-065U","EPOCH":"2026-01-13T04:45:53.922528","MEAN_MOTION":15.27577976,"ECCENTRICITY":0.00018282,"INCLINATION":43.0044,"RA_OF_ASC_NODE":60.3652,"ARG_OF_PERICENTER":276.0501,"MEAN_ANOMALY":84.0142,"EPHEMERIS_TYPE":0,"CLASSIFICATION_TYPE":"U","NORAD_CAT_ID":63417,"ELEMENT_SET_NO":999,"REV_AT_EPOCH":4435,"BSTAR":0.00053854641,"MEAN_MOTION_DOT":0.00014586,"MEAN_MOTION_DDOT":0},{"OBJECT_NAME":"STARLINK-33703","OBJECT_ID":"2025-065V","EPOCH":"2026-01-13T19:22:55.083936","MEAN_MOTION":15.2758651,"ECCENTRICITY":0.000118,"INCLINATION":43.0017,"RA_OF_ASC_NODE":57.211,"ARG_OF_PERICENTER":299.5746,"MEAN_ANOMALY":60.4988,"EPHEMERIS_TYPE":0,"CLASSIFICATION_TYPE":"U","NORAD_CAT_ID":63418,"ELEMENT_SET_NO":999,"REV_AT_EPOCH":4444,"BSTAR":0.00044892805,"MEAN_MOTION_DOT":0.00012114,"MEAN_MOTION_DDOT":0},{"OBJECT_NAME":"STARLINK-33709","OBJECT_ID":"2025-065W","EPOCH":"2026-01-13T03:46:54.152544","MEAN_MOTION":15.27577172,"ECCENTRICITY":9.846e-5,"INCLINATION":42.9999,"RA_OF_ASC_NODE":60.9368,"ARG_OF_PERICENTER":246.07,"MEAN_ANOMALY":114.0048,"EPHEMERIS_TYPE":0,"CLASSIFICATION_TYPE":"U","NORAD_CAT_ID":63419,"ELEMENT_SET_NO":999,"REV_AT_EPOCH":4434,"BSTAR":0.00054927582,"MEAN_MOTION_DOT":0.00014882,"MEAN_MOTION_DDOT":0},{"OBJECT_NAME":"STARLINK-33698","OBJECT_ID":"2025-065X","EPOCH":"2026-01-13T04:18:08.615232","MEAN_MOTION":15.27577767,"ECCENTRICITY":0.00013304,"INCLINATION":43.0028,"RA_OF_ASC_NODE":60.2168,"ARG_OF_PERICENTER":247.0698,"MEAN_ANOMALY":113.0013,"EPHEMERIS_TYPE":0,"CLASSIFICATION_TYPE":"U","NORAD_CAT_ID":63420,"ELEMENT_SET_NO":999,"REV_AT_EPOCH":4435,"BSTAR":0.00059528482,"MEAN_MOTION_DOT":0.00016154,"MEAN_MOTION_DDOT":0},{"OBJECT_NAME":"STARLINK-33606","OBJECT_ID":"2025-065Y","EPOCH":"2026-01-13T12:34:49.815552","MEAN_MOTION":15.275915,"ECCENTRICITY":0.0001465,"INCLINATION":43.0022,"RA_OF_ASC_NODE":58.5166,"ARG_OF_PERICENTER":285.7326,"MEAN_ANOMALY":74.3364,"EPHEMERIS_TYPE":0,"CLASSIFICATION_TYPE":"U","NORAD_CAT_ID":63421,"ELEMENT_SET_NO":999,"REV_AT_EPOCH":4440,"BSTAR":0.00063043652,"MEAN_MOTION_DOT":0.00017133,"MEAN_MOTION_DDOT":0},{"OBJECT_NAME":"STARLINK-33686","OBJECT_ID":"2025-065Z","EPOCH":"2026-01-13T09:41:19.128768","MEAN_MOTION":15.27577921,"ECCENTRICITY":0.0001739,"INCLINATION":42.9988,"RA_OF_ASC_NODE":59.3294,"ARG_OF_PERICENTER":264.9188,"MEAN_ANOMALY":95.1465,"EPHEMERIS_TYPE":0,"CLASSIFICATION_TYPE":"U","NORAD_CAT_ID":63422,"ELEMENT_SET_NO":999,"REV_AT_EPOCH":4438,"BSTAR":0.00056258,"MEAN_MOTION_DOT":0.0001525,"MEAN_MOTION_DDOT":0},{"OBJECT_NAME":"STARLINK-33675","OBJECT_ID":"2025-065AA","EPOCH":"2026-01-13T12:03:22.260672","MEAN_MOTION":15.27591471,"ECCENTRICITY":0.00015188,"INCLINATION":43.0052,"RA_OF_ASC_NODE":58.3505,"ARG_OF_PERICENTER":259.7011,"MEAN_ANOMALY":100.3669,"EPHEMERIS_TYPE":0,"CLASSIFICATION_TYPE":"U","NORAD_CAT_ID":63423,"ELEMENT_SET_NO":999,"REV_AT_EPOCH":4440,"BSTAR":0.00064067847,"MEAN_MOTION_DOT":0.00017416,"MEAN_MOTION_DDOT":0},{"OBJECT_NAME":"STARLINK-33655","OBJECT_ID":"2025-065AB","EPOCH":"2026-01-13T13:22:56.032608","MEAN_MOTION":15.27598984,"ECCENTRICITY":0.00013446,"INCLINATION":43.0015,"RA_OF_ASC_NODE":58.7629,"ARG_OF_PERICENTER":292.7815,"MEAN_ANOMALY":67.2895,"EPHEMERIS_TYPE":0,"CLASSIFICATION_TYPE":"U","NORAD_CAT_ID":63424,"ELEMENT_SET_NO":999,"REV_AT_EPOCH":4440,"BSTAR":0.00071875293,"MEAN_MOTION_DOT":0.0001958,"MEAN_MOTION_DDOT":0},{"OBJECT_NAME":"STARLINK-33608","OBJECT_ID":"2025-065AC","EPOCH":"2026-01-13T09:37:36.869088","MEAN_MOTION":15.27585148,"ECCENTRICITY":0.0001456,"INCLINATION":43.0001,"RA_OF_ASC_NODE":59.2992,"ARG_OF_PERICENTER":262.8385,"MEAN_ANOMALY":97.2301,"EPHEMERIS_TYPE":0,"CLASSIFICATION_TYPE":"U","NORAD_CAT_ID":63425,"ELEMENT_SET_NO":999,"REV_AT_EPOCH":4438,"BSTAR":0.0006336,"MEAN_MOTION_DOT":0.00017217,"MEAN_MOTION_DDOT":0},{"OBJECT_NAME":"STARLINK-33615","OBJECT_ID":"2025-065AD","EPOCH":"2026-01-13T10:09:04.613184","MEAN_MOTION":15.27590151,"ECCENTRICITY":0.000113,"INCLINATION":42.9981,"RA_OF_ASC_NODE":59.482,"ARG_OF_PERICENTER":294.7761,"MEAN_ANOMALY":65.2972,"EPHEMERIS_TYPE":0,"CLASSIFICATION_TYPE":"U","NORAD_CAT_ID":63426,"ELEMENT_SET_NO":999,"REV_AT_EPOCH":4438,"BSTAR":0.00064609,"MEAN_MOTION_DOT":0.00017565,"MEAN_MOTION_DDOT":0},{"OBJECT_NAME":"STARLINK-33682","OBJECT_ID":"2025-069A","EPOCH":"2026-01-13T05:37:43.030848","MEAN_MOTION":15.30200706,"ECCENTRICITY":0.0001298,"INCLINATION":53.16,"RA_OF_ASC_NODE":40.112,"ARG_OF_PERICENTER":104.7588,"MEAN_ANOMALY":255.3557,"EPHEMERIS_TYPE":0,"CLASSIFICATION_TYPE":"U","NORAD_CAT_ID":63433,"ELEMENT_SET_NO":999,"REV_AT_EPOCH":4491,"BSTAR":0.00051818,"MEAN_MOTION_DOT":0.00015019,"MEAN_MOTION_DDOT":0},{"OBJECT_NAME":"STARLINK-33710","OBJECT_ID":"2025-069B","EPOCH":"2026-01-13T18:34:28.253568","MEAN_MOTION":15.30184356,"ECCENTRICITY":0.00012855,"INCLINATION":53.1609,"RA_OF_ASC_NODE":37.7901,"ARG_OF_PERICENTER":84.3977,"MEAN_ANOMALY":275.717,"EPHEMERIS_TYPE":0,"CLASSIFICATION_TYPE":"U","NORAD_CAT_ID":63434,"ELEMENT_SET_NO":999,"REV_AT_EPOCH":4499,"BSTAR":0.00056890152,"MEAN_MOTION_DOT":0.00016519,"MEAN_MOTION_DDOT":0},{"OBJECT_NAME":"STARLINK-33733","OBJECT_ID":"2025-069C","EPOCH":"2026-01-13T18:29:54.175488","MEAN_MOTION":15.30198553,"ECCENTRICITY":0.00020803,"INCLINATION":53.1602,"RA_OF_ASC_NODE":37.7684,"ARG_OF_PERICENTER":83.851,"MEAN_ANOMALY":276.2727,"EPHEMERIS_TYPE":0,"CLASSIFICATION_TYPE":"U","NORAD_CAT_ID":63435,"ELEMENT_SET_NO":999,"REV_AT_EPOCH":4499,"BSTAR":0.00077905177,"MEAN_MOTION_DOT":0.00022784,"MEAN_MOTION_DDOT":0},{"OBJECT_NAME":"STARLINK-33638","OBJECT_ID":"2025-069D","EPOCH":"2026-01-13T10:35:04.545312","MEAN_MOTION":15.30190232,"ECCENTRICITY":9.5e-5,"INCLINATION":53.1601,"RA_OF_ASC_NODE":39.2648,"ARG_OF_PERICENTER":97.9513,"MEAN_ANOMALY":262.1595,"EPHEMERIS_TYPE":0,"CLASSIFICATION_TYPE":"U","NORAD_CAT_ID":63436,"ELEMENT_SET_NO":999,"REV_AT_EPOCH":4494,"BSTAR":0.00029449,"MEAN_MOTION_DOT":8.37e-5,"MEAN_MOTION_DDOT":0},{"OBJECT_NAME":"STARLINK-33726","OBJECT_ID":"2025-069E","EPOCH":"2026-01-13T08:53:25.431072","MEAN_MOTION":15.30207803,"ECCENTRICITY":0.0002169,"INCLINATION":53.1595,"RA_OF_ASC_NODE":39.5359,"ARG_OF_PERICENTER":91.6273,"MEAN_ANOMALY":268.4976,"EPHEMERIS_TYPE":0,"CLASSIFICATION_TYPE":"U","NORAD_CAT_ID":63437,"ELEMENT_SET_NO":999,"REV_AT_EPOCH":4488,"BSTAR":0.00056566,"MEAN_MOTION_DOT":0.00016435,"MEAN_MOTION_DDOT":0},{"OBJECT_NAME":"STARLINK-33681","OBJECT_ID":"2025-069F","EPOCH":"2026-01-13T18:07:06.174912","MEAN_MOTION":15.30203384,"ECCENTRICITY":0.00010329,"INCLINATION":53.1588,"RA_OF_ASC_NODE":37.6703,"ARG_OF_PERICENTER":90.5181,"MEAN_ANOMALY":269.5939,"EPHEMERIS_TYPE":0,"CLASSIFICATION_TYPE":"U","NORAD_CAT_ID":63438,"ELEMENT_SET_NO":999,"REV_AT_EPOCH":4499,"BSTAR":0.00048556098,"MEAN_MOTION_DOT":0.00014051,"MEAN_MOTION_DDOT":0}]
