STARLINK-33535          
1 63417U 25065U   26013.19854077  .00014586  00000+0  53855-3 0  9994
2 63417  43.0044  60.3652 0001828 276.0501  84.0142 15.27577976 44351
STARLINK-33703          
1 63418U 25065V   26013.80758199  .00012114  00000+0  44893-3 0  9998
2 63418  43.0017  57.2110 0001180 299.5746  60.4988 15.27586510 44448
STARLINK-33709          
1 63419U 25065W   26013.15757121  .00014882  00000+0  54928-3 0  9995
2 63419  42.9999  60.9368 0000984 246.0700 114.0048 15.27577172 44346
STARLINK-33698          
1 63420U 25065X   26013.17926638  .00016154  00000+0  59528-3 0  9995
2 63420  43.0028  60.2168 0001330 247.0698 113.0013 15.27577767 44359
STARLINK-33606          
1 63421U 25065Y   26013.52418768  .00017133  00000+0  63044-3 0  9991
2 63421  43.0022  58.5166 0001465 285.7326  74.3364 15.27591500 44403
STARLINK-33686          
1 63422U 25065Z   26013.40369362  .00015250  00000+0  56258-3 0  9991
2 63422  42.9988  59.3294 0001739 264.9188  95.1465 15.27577921 44384
STARLINK-33675          
1 63423U 25065AA  26013.50234098  .00017416  00000+0  64068-3 0  9994
2 63423  43.0052  58.3505 0001518 259.7011 100.3669 15.27591471 44409
STARLINK-33655          
1 63424U 25065AB  26013.55759297  .00019580  00000+0  71875-3 0  9991
2 63424  43.0015  58.7629 0001344 292.7815  67.2895 15.27598984 44404
STARLINK-33608          
1 63425U 25065AC  26013.40112117  .00017217  00000+0  63360-3 0  9995
2 63425  43.0001  59.2992 0001456 262.8385  97.2301 15.27585148 44383
STARLINK-33615          
1 63426U 25065AD  26013.42297006  .00017565  00000+0  64609-3 0  9992
2 63426  42.9981  59.4820 0001130 294.7761  65.2972 15.27590151 44381
STARLINK-33682          
1 63433U 25069A   26013.23452582  .00015019  00000+0  51818-3 0  9995
2 63433  53.1600  40.1120 0001298 104.7588 255.3557 15.30200706 44911
STARLINK-33710          
1 63434U 25069B   26013.77393812  .00016519  00000+0  56890-3 0  9996
2 63434  53.1609  37.7901 0001285  84.3977 275.7170 15.30184356 44998
STARLINK-33733          
1 63435U 25069C   26013.77076592  .00022784  00000+0  77905-3 0  9991
2 63435  53.1602  37.7684 0002080  83.8510 276.2727 15.30198553 44999
STARLINK-33638          
1 63436U 25069D   26013.44102483  .00008370  00000+0  29449-3 0  9990
2 63436  53.1601  39.2648 0000950  97.9513 262.1595 15.30190232 44947
STARLINK-33726          
1 63437U 25069E   26013.37043323  .00016435  00000+0  56566-3 0  9991
2 63437  53.1595  39.5359 0002169  91.6273 268.4976 15.30207803 44888
STARLINK-33681          
1 63438U 25069F   26013.75493258  .00014051  00000+0  48556-3 0  9992
2 63438  53.1588  37.6703 0001032  90.5181 269.5939 15.30203384 44990
